#dP2023 10  7 12  0  0.00000000      96 __u+U ITR00 EXT  IAC
## 2282 561600.00000000   900.00000000 60224 0.5000000000000
+  120   C06C07C08C09C10C11C12C13C14C16C19C20C21C22C23C24C25
+        C26C27C28C29C30C32C33C34C35C36C37C38C39C40C41C42C43
+        C44C45C46E02E03E04E05E07E08E09E10E11E12E13E14E15E18
+        E19E21E24E25E26E27E30E31E33E34E36G01G02G03G04G05G06
+        G07G08G09G10G11G12G13G14G15G16G17G18G19G20G21G22G23
+        G24G25G26G27G28G29G30G31G32J02J03J04R01R02R03R04R05
+        R07R08R09R11R12R13R14R15R16R17R18R19R20R21R22R24R25
+        R26  0  0  0  0  0  0  0  0  0  0  0  0  0  0  0  0
++        11  9  9  7  8  9  7 10  8  9  8 10  9  8  7  7  9
++         7  9  8  8 10  8  9  9  9  9  9 10 11 10  8  9  9
++         7  8 10  7  6  7  6  7  6  6  7  8  8 10  6  9  8
++         8  7  8  7 10  7  7  8 10  6 10  8  7  7  8  7  9
++         7  7  7  8  9  7  7  7  7  8  8  9  7  6  6  7  7
++         6  7  8  6  8  6  7  7  9  8  9  8  7  7  9  8  7
++         8  7  9  8  9  9  8  8  7  8  9  8 10  8  7  8  7
++        10  0  0  0  0  0  0  0  0  0  0  0  0  0  0  0  0
%c M  cc GPS ccc cccc cccc cccc cccc ccccc ccccc ccccc ccccc
%c cc cc ccc ccc cccc cccc cccc cccc ccccc ccccc ccccc ccccc
%f  0.0000000  0.000000000  0.00000000000  0.000000000000000
%f  0.0000000  0.000000000  0.00000000000  0.000000000000000
%i    0    0    0    0      0      0      0      0         0
%i    0    0    0    0      0      0      0      0         0
/* IAC                                ULTRA-RAPID PREDICTION
/* S/V CLOCKS ARE ALIGNED TO GNSS TIME                      
/* G:C1WC2W R:C1PC2P E:C1XC5X C:C2IC6I J:C1CC2S             
/* PCV:IGS20_2280 OL/AL:FES2004  NONE     YN ORB:CoN CLK:CoN
*  2023 10 08  1 15  0.00000000
PC06 -16884.974949  34096.331639 -18469.168628     46.049179
PC07  -4633.923573  36476.975954 -20366.880159   -123.584862
PC08  -7539.438728  19125.853381  36788.574383    308.047207
PC09 -12561.815360  32751.562169 -23387.373444     69.870781
PC10   2399.502529  39218.510299 -14206.366594   -203.990644
PC11  18203.608780 -20084.448892   6769.289586    192.075514
PC12  18419.506443  -3527.951443  20714.142473    906.613128
PC13   -274.394845  22268.162207  35963.798520    364.090898
PC14  10375.604278 -12843.578754 -22500.198175    545.848689
PC16 -22191.087365  33527.716880 -12969.401896   -115.402493
PC19  -3073.471400  20447.769358  18745.342063   -971.309533
PC20 -15151.874514   4807.848461  22938.215623    221.861376
PC21  19086.608907  15139.718651 -13589.476744   -969.768508
PC22  11444.541021  25200.283655   3467.960463   -275.631982
PC23  -7543.651561 -15780.104144  21749.308671   -850.455197
PC24  26840.720383  -4296.252607   6370.740680    471.369508
PC25  12414.588343 -14698.416552  20212.248996    227.985496
PC26  25072.415498   6981.921340 -10132.438773   -188.545564
PC27 -15138.938953  -5662.684711 -22765.053657    210.255830
PC28  -2860.590354 -20486.387345 -18728.128384    158.100817
PC29 -12148.008525  25029.051742   2137.630661    184.764539
PC30 -19419.786048  13112.609688 -15170.712654     -6.123181
PC32 -19210.180758 -15103.265543  13488.832471   -529.158582
PC33   3034.205102 -20424.291883 -18783.817606   -957.587327
PC34  19324.956732 -14383.766867  14065.427933    276.233425
PC35   3675.382225  20408.074640  18681.551248    530.112653
PC36 -13592.338159  14129.490485 -19829.698559   -190.072554
PC37 -24431.819808  -8022.752669  10818.003536   -847.141893
PC38 -16755.079988  18569.094168  33936.461638    109.717539
PC39 -23743.257595  34099.910231  -7862.779964     -5.127127
PC40  -8510.414239  33228.078984 -24316.668300    -39.292627
PC41 -11089.483736 -25265.677439  -4150.398609   -873.976407
PC42  15894.801263  -3297.003928 -22662.337576   -527.422423
PC43  12725.650153 -24793.969772  -1284.513285     43.025546
PC44  15346.728000   5377.229290  22666.491719    254.855873
PC45   8186.684050  15570.151823 -21667.491982    -33.742232
PC46 -26371.556027   5012.433662  -7547.829610    -90.130372
PE02   9384.144405  21327.050741 -18263.317352     68.557597
PE03   2342.913922  28954.039017  -5671.158179    -62.963187
PE04 -13561.538160 -16327.189676  20631.417650   -229.257624
PE05 -10236.296142  24759.796342  12579.229520     25.379940
PE07  16918.066951  -5588.803936 -23640.919109    -80.454505
PE08  13258.994913  16785.230278 -20463.990780   -158.003026
PE09 -16780.969109   5426.476248  23764.966624   -183.495870
PE10 -24710.393958    828.467180 -16268.547422   -569.474181
PE11 -27408.052472   8738.609240  -6985.053363   3056.815113
PE12 -18621.983701  -6580.927350 -22050.824030   -727.675083
PE13  27358.829830  -8292.648459   7689.158443    -19.719270
PE14   9377.372091 -27650.083236   6929.696965    362.267387
PE15  18230.774727   6829.416192  22305.324524    -59.388065
PE18 -14759.121167  16987.280013 -14491.905597    618.957545
PE19   -503.209829 -29410.059193   3297.168311  -1471.916032
PE21   9896.545510 -13570.888995  24377.641554   -557.093085
PE24 -24601.837590  -2931.320756 -16189.411529   -363.435047
PE25 -10244.193675  13323.153527 -24356.174415     -2.917633
PE26  19822.429934 -18572.574312 -11770.466500    244.774975
PE27  24394.445404   2422.475677  16603.535568   -168.989366
PE30  24137.564789  17101.357783  -1244.862395   -561.762913
PE31 -24343.815938 -16813.226456    881.694846     -7.016953
PE33   2125.077626 -17936.303285 -23451.162927      0.129949
PE34  -1383.852613  17731.803980  23653.250995    -71.170371
PE36 -20345.732580  18342.601934  11214.359453   -126.816619
PG01   5342.482654 -16927.083510 -19983.424265    164.030100
PG02  11658.255922 -18504.341907 -14439.842208   -544.783796
PG03  -5393.103135 -18536.059642 -18436.350755    -92.103131
PG04    410.084730 -26280.202343   3326.189766    178.089423
PG05  -9509.415923  11698.519986  21690.083102   -145.647712
PG06 -24338.687435   4524.380885  -9686.289024    535.345382
PG07 -12800.449831 -10647.262927  21254.537151     46.426385
PG08   5895.104147 -24700.134854   6960.486776   -145.999339
PG09  -7331.615925 -22534.985435  11855.976563    -38.694833
PG10  23633.555356  10224.096004  -6990.874323    -56.440608
PG11 -23367.542040  12224.077307   2921.873120   -404.846563
PG12   1168.498931  18179.104953 -19629.795438   -433.378762
PG13 -13122.628836  18760.297526  13080.053775    581.447228
PG14 -22976.847662 -12887.924530  -4019.613295    207.495498
PG15  -2139.203909  25660.041540   5506.932148     84.927270
PG16  15204.816176  -6164.732139  20667.245401   -442.627961
PG17 -13228.732921  -8657.922012 -20885.329123    723.852610
PG18  14199.653460   8860.152955  20674.104518   -441.842746
PG19 -15264.966278    371.127601 -21901.801994    381.916299
PG20 -19476.025082   4858.715393  17339.559640    407.967101
PG21  14076.053302 -18186.573292 -11920.120895    147.278734
PG22 -22382.257706  -8832.240625 -10468.520887    107.154601
PG23  20078.677308  16774.606956   5109.949986     79.342600
PG24  -8573.559127  19275.359515 -16265.649580   -340.221803
PG25  14489.842915  19343.047148 -11634.021042    471.630376
PG26  22234.197753    200.709405  14659.982388    224.478604
PG27  12635.043060 -15772.374834  16758.243330    -51.680055
PG28  23695.928494  -3524.001324 -11494.779892    -21.639977
PG29   5073.142544  22917.247341  12284.651142   -609.923612
PG30 -20980.388982  -3183.686087  16253.439922   -480.731107
PG31  24935.235843  -9496.903436  -2583.999461   -224.373050
PG32  14845.700439   3892.015732 -21510.975215   -569.471091
PJ02 -23868.115733  17702.583454 -25319.365936     -5.287653
PJ03 -28994.776198  30661.378506   4745.959456     -4.514285
PJ04 -25964.388630  26777.279290  25574.542052     71.029491
PR01   1810.777337 -18709.614174 -17253.575584     67.227169
PR02  -7601.547057 -24289.379544   -955.878355    -22.392440
PR03 -13032.103259 -15539.693378  15467.713377     86.660633
PR04 -10864.521801   1305.427396  23062.196640    205.923295
PR05  -3088.200880  17612.825415  18208.970499    120.264447
PR07  13070.456589  14986.792195 -15977.882774     66.355868
PR08  10897.936501  -1551.847693 -22960.801245    -72.861117
PR09   9117.093216  11858.719692 -20618.627796    146.410513
PR11  24143.175823    415.004503   8208.689847   -188.683646
PR12  10489.872594  -8574.085809  21643.076789     32.110993
PR13  -6822.904248 -11738.770297  21582.629168    -39.978631
PR14 -22861.785489  -8090.141373   7955.293805     25.382419
PR15 -23696.891219    105.936858  -9425.472750     85.562317
PR16 -10741.989882   8374.190413 -21562.425348     19.427545
PR17 -11044.457633  -3159.347977 -22757.201242     23.801661
PR18 -18354.995427  11025.669105 -13876.089752    105.749223
PR19 -17428.209412  18606.496056    597.438111   -250.079295
PR20  -4188.041676  16543.712155  18982.504113   -101.374507
PR21  11593.234715   2355.484186  22607.309683    -43.849968
PR22  19019.138522 -10954.050739  13022.378415     87.652775
PR24   2794.689147 -16645.661870 -19115.103403    -27.353737
PR25  11163.134841   3808.400038  22627.968355     29.186217
PR26  11035.808531  -1160.855820 -22952.377357    -21.398006
EOF
